MALLIGYONG-1            
1 58400U 23179A   24090.88345101  .00008879  00000+0  39497-3 0  9990
2 58400  97.4139 338.9039 0009948 166.5701 193.5801 15.21678525 19811
